[
    {
        "Altitude(m)": 604969.0890811333,
        "Argument of Periapsis(deg)": 0.0,
        "Eccentricity": 0.0,
        "Inclination(deg)": 60.0,
        "Latitude(deg)": -0.09261460819194774,
        "Longitude(deg)": 19.97752778774287,
        "Mean Anomaly(deg)": 0.0,
        "RAAN(deg)": 120.0,
        "Satellite Name": "Test1 528",
        "Satellite Number": 528,
        "Semi-Major Axis(m)": 6980739.136638005,
        "Time(s)": 0
    },
    {
        "Altitude(m)": 604900.028902716,
        "Argument of Periapsis(deg)": 0.00010418945913296404,
        "Eccentricity": 0.0,
        "Inclination(deg)": 60.0,
        "Latitude(deg)": 0.44781182221385923,
        "Longitude(deg)": 20.24564975207907,
        "Mean Anomaly(deg)": 0.6201061454618275,
        "RAAN(deg)": 119.99957995086024,
        "Satellite Name": "Test1 528",
        "Satellite Number": 528,
        "Semi-Major Axis(m)": 6980739.136638005,
        "Time(s)": 10
    }
]